start=new Date('2022-05-20T00:00:00.000Z').valueOf();
sats=[{"CLASSIFICATION_TYPE":"U","TLE_LINE1":"1 47653U 21012AK  22139.57829693  .00001614  00000-0  12730-3 0  9995","DECAY_DATE":null,"FILE":"3453812","MEAN_ELEMENT_THEORY":"SGP4","RCS_SIZE":"LARGE","MEAN_MOTION":"15.06377205","SITE":"AFETR","ELEMENT_SET_NO":"999","REV_AT_EPOCH":"7073","ECCENTRICITY":"0.00021720","OBJECT_ID":"2021-012AK","SEMIMAJOR_AXIS":"6925.418","TLE_LINE2":"2 47653  53.0545 172.0630 0002172  35.3229 324.7904 15.06377205 70736","PERIOD":"95.594","INCLINATION":"53.0545","EPHEMERIS_TYPE":"0","GP_ID":"203987060","EPOCH":"2022-05-19T13:52:44.854752","OBJECT_NAME":"STARLINK-2037","ARG_OF_PERICENTER":"35.3229","BSTAR":"0.00012730000000","TIME_SYSTEM":"UTC","COUNTRY_CODE":"US","OBJECT_TYPE":"PAYLOAD","CENTER_NAME":"EARTH","MEAN_MOTION_DDOT":"0.0000000000000","NORAD_CAT_ID":"47653","LAUNCH_DATE":"2021-02-16","PERIAPSIS":"545.779","MEAN_MOTION_DOT":"0.00001614","APOAPSIS":"548.788","REF_FRAME":"TEME","RA_OF_ASC_NODE":"172.0630","MEAN_ANOMALY":"324.7904"},{"APOAPSIS":"548.695","MEAN_MOTION_DOT":"0.00000733","LAUNCH_DATE":"2021-02-16","PERIAPSIS":"545.823","MEAN_MOTION_DDOT":"0.0000000000000","NORAD_CAT_ID":"47654","RA_OF_ASC_NODE":"190.8386","MEAN_ANOMALY":"310.4934","REF_FRAME":"TEME","TIME_SYSTEM":"UTC","BSTAR":"0.00006815500000","OBJECT_NAME":"STARLINK-2038","ARG_OF_PERICENTER":"49.6236","EPOCH":"2022-05-19T20:28:10.450272","CENTER_NAME":"EARTH","OBJECT_TYPE":"PAYLOAD","COUNTRY_CODE":"US","TLE_LINE2":"2 47654  53.0553 190.8386 0002073  49.6236 310.4934 15.06385153 69989","OBJECT_ID":"2021-012AL","SEMIMAJOR_AXIS":"6925.394","ECCENTRICITY":"0.00020730","GP_ID":"203950802","EPHEMERIS_TYPE":"0","PERIOD":"95.593","INCLINATION":"53.0553","TLE_LINE1":"1 47654U 21012AL  22139.85289873  .00000733  00000-0  68155-4 0  9991","CLASSIFICATION_TYPE":"U","REV_AT_EPOCH":"6998","SITE":"AFETR","MEAN_MOTION":"15.06385153","ELEMENT_SET_NO":"999","RCS_SIZE":"LARGE","FILE":"3453223","MEAN_ELEMENT_THEORY":"SGP4","DECAY_DATE":null},{"TIME_SYSTEM":"UTC","OBJECT_NAME":"STARLINK-2039","ARG_OF_PERICENTER":"65.9615","BSTAR":"0.00003236000000","EPOCH":"2022-05-19T20:17:32.797536","OBJECT_TYPE":"PAYLOAD","CENTER_NAME":"EARTH","COUNTRY_CODE":"US","MEAN_MOTION_DOT":"0.00000200","APOAPSIS":"548.302","PERIAPSIS":"546.166","LAUNCH_DATE":"2021-02-16","NORAD_CAT_ID":"47655","MEAN_MOTION_DDOT":"0.0000000000000","REF_FRAME":"TEME","MEAN_ANOMALY":"294.1535","RA_OF_ASC_NODE":"190.8802","TLE_LINE1":"1 47655U 21012AM  22139.84551849  .00000200  00000-0  32360-4 0  9994","CLASSIFICATION_TYPE":"U","REV_AT_EPOCH":"6998","SITE":"AFETR","ELEMENT_SET_NO":"999","MEAN_MOTION":"15.06393392","FILE":"3453191","RCS_SIZE":"LARGE","MEAN_ELEMENT_THEORY":"SGP4","DECAY_DATE":null,"TLE_LINE2":"2 47655  53.0561 190.8802 0001542  65.9615 294.1535 15.06393392 69983","OBJECT_ID":"2021-012AM","SEMIMAJOR_AXIS":"6925.369","ECCENTRICITY":"0.00015420","EPHEMERIS_TYPE":"0","GP_ID":"203951278","PERIOD":"95.593","INCLINATION":"53.0561"},{"SITE":"AFETR","ELEMENT_SET_NO":"999","MEAN_MOTION":"15.06380832","REV_AT_EPOCH":"7025","DECAY_DATE":null,"FILE":"3453193","RCS_SIZE":"LARGE","MEAN_ELEMENT_THEORY":"SGP4","CLASSIFICATION_TYPE":"U","TLE_LINE1":"1 47656U 21012AN  22139.79576674 -.00001747  00000-0 -98431-4 0  9992","GP_ID":"203951315","EPHEMERIS_TYPE":"0","PERIOD":"95.593","INCLINATION":"53.0547","TLE_LINE2":"2 47656  53.0547 171.1027 0002752  29.1191 330.9951 15.06380832 70252","ECCENTRICITY":"0.00027520","OBJECT_ID":"2021-012AN","SEMIMAJOR_AXIS":"6925.407","OBJECT_TYPE":"PAYLOAD","CENTER_NAME":"EARTH","COUNTRY_CODE":"US","TIME_SYSTEM":"UTC","EPOCH":"2022-05-19T19:05:54.246336","BSTAR":"-0.00009843100000","ARG_OF_PERICENTER":"29.1191","OBJECT_NAME":"STARLINK-2040","MEAN_ANOMALY":"330.9951","RA_OF_ASC_NODE":"171.1027","REF_FRAME":"TEME","APOAPSIS":"549.178","MEAN_MOTION_DOT":"-0.00001747","MEAN_MOTION_DDOT":"0.0000000000000","NORAD_CAT_ID":"47656","LAUNCH_DATE":"2021-02-16","PERIAPSIS":"545.366"},{"REF_FRAME":"TEME","RA_OF_ASC_NODE":"191.6766","MEAN_ANOMALY":"298.7426","MEAN_MOTION_DOT":"0.00002797","APOAPSIS":"548.284","NORAD_CAT_ID":"47657","MEAN_MOTION_DDOT":"0.0000000000000","LAUNCH_DATE":"2021-02-16","PERIAPSIS":"546.285","OBJECT_TYPE":"PAYLOAD","CENTER_NAME":"EARTH","COUNTRY_CODE":"US","TIME_SYSTEM":"UTC","EPOCH":"2022-05-19T16:02:47.229216","OBJECT_NAME":"STARLINK-2041","ARG_OF_PERICENTER":"61.3708","BSTAR":"0.00020669000000","EPHEMERIS_TYPE":"0","GP_ID":"203986561","INCLINATION":"53.0551","PERIOD":"95.594","TLE_LINE2":"2 47657  53.0551 191.6766 0001443  61.3708 298.7426 15.06376909 70475","ECCENTRICITY":"0.00014430","OBJECT_ID":"2021-012AP","SEMIMAJOR_AXIS":"6925.419","SITE":"AFETR","MEAN_MOTION":"15.06376909","ELEMENT_SET_NO":"999","REV_AT_EPOCH":"7047","DECAY_DATE":null,"RCS_SIZE":"LARGE","FILE":"3453812","MEAN_ELEMENT_THEORY":"SGP4","CLASSIFICATION_TYPE":"U","TLE_LINE1":"1 47657U 21012AP  22139.66860219  .00002797  00000-0  20669-3 0  9991"},{"TLE_LINE2":"2 47658  53.0547 190.8102 0001628  66.2160 293.8999 15.06398709 70526","OBJECT_ID":"2021-012AQ","SEMIMAJOR_AXIS":"6925.353","ECCENTRICITY":"0.00016280","GP_ID":"203986811","EPHEMERIS_TYPE":"0","PERIOD":"95.592","INCLINATION":"53.0547","TLE_LINE1":"1 47658U 21012AQ  22139.86025738 -.00000250  00000-0  20880-5 0  9993","CLASSIFICATION_TYPE":"U","REV_AT_EPOCH":"7052","ELEMENT_SET_NO":"999","SITE":"AFETR","MEAN_MOTION":"15.06398709","MEAN_ELEMENT_THEORY":"SGP4","FILE":"3453812","RCS_SIZE":"LARGE","DECAY_DATE":null,"APOAPSIS":"548.345","MEAN_MOTION_DOT":"-0.00000250","PERIAPSIS":"546.090","LAUNCH_DATE":"2021-02-16","NORAD_CAT_ID":"47658","MEAN_MOTION_DDOT":"0.0000000000000","MEAN_ANOMALY":"293.8999","RA_OF_ASC_NODE":"190.8102","REF_FRAME":"TEME","TIME_SYSTEM":"UTC","BSTAR":"0.00000208800000","OBJECT_NAME":"STARLINK-2042","ARG_OF_PERICENTER":"66.2160","EPOCH":"2022-05-19T20:38:46.237632","CENTER_NAME":"EARTH","OBJECT_TYPE":"PAYLOAD","COUNTRY_CODE":"US"},{"MEAN_ANOMALY":"99.5656","RA_OF_ASC_NODE":"70.5598","REF_FRAME":"TEME","MEAN_MOTION_DDOT":"0.0000000000000","NORAD_CAT_ID":"47659","PERIAPSIS":"546.126","LAUNCH_DATE":"2021-02-16","APOAPSIS":"548.168","MEAN_MOTION_DOT":"-0.00031655","COUNTRY_CODE":"US","OBJECT_TYPE":"PAYLOAD","CENTER_NAME":"EARTH","EPOCH":"2022-05-19T22:00:00.999936","BSTAR":"-0.00211440000000","ARG_OF_PERICENTER":"66.7180","OBJECT_NAME":"STARLINK-2043","TIME_SYSTEM":"UTC","PERIOD":"95.591","INCLINATION":"53.0554","GP_ID":"203988061","EPHEMERIS_TYPE":"0","ECCENTRICITY":"0.00014740","SEMIMAJOR_AXIS":"6925.282","OBJECT_ID":"2021-012AR","TLE_LINE2":"2 47659  53.0554  70.5598 0001474  66.7180  99.5656 15.06421772  1302","DECAY_DATE":null,"RCS_SIZE":"LARGE","FILE":"3453812","MEAN_ELEMENT_THEORY":"SGP4","SITE":"AFETR","MEAN_MOTION":"15.06421772","ELEMENT_SET_NO":"999","REV_AT_EPOCH":"130","CLASSIFICATION_TYPE":"U","TLE_LINE1":"1 47659U 21012AR  22139.91667824 -.00031655  00000-0 -21144-2 0  9993"},{"ECCENTRICITY":"0.00016080","OBJECT_ID":"2021-012AS","SEMIMAJOR_AXIS":"6932.792","TLE_LINE2":"2 47660  53.0566  60.7296 0001608  49.4944 244.9906 15.03974509  1300","INCLINATION":"53.0566","PERIOD":"95.746","GP_ID":"203987812","EPHEMERIS_TYPE":"0","CLASSIFICATION_TYPE":"U","TLE_LINE1":"1 47660U 21012AS  22139.91667824 -.00039941  00000-0 -28583-2 0  9995","DECAY_DATE":null,"RCS_SIZE":"LARGE","FILE":"3453812","MEAN_ELEMENT_THEORY":"SGP4","ELEMENT_SET_NO":"999","SITE":"AFETR","MEAN_MOTION":"15.03974509","REV_AT_EPOCH":"130","NORAD_CAT_ID":"47660","MEAN_MOTION_DDOT":"0.0000000000000","LAUNCH_DATE":"2021-02-16","PERIAPSIS":"553.543","APOAPSIS":"555.772","MEAN_MOTION_DOT":"-0.00039941","RA_OF_ASC_NODE":"60.7296","MEAN_ANOMALY":"244.9906","REF_FRAME":"TEME","EPOCH":"2022-05-19T22:00:00.999936","BSTAR":"-0.00285830000000","ARG_OF_PERICENTER":"49.4944","OBJECT_NAME":"STARLINK-2044","TIME_SYSTEM":"UTC","COUNTRY_CODE":"US","OBJECT_TYPE":"PAYLOAD","CENTER_NAME":"EARTH"},{"APOAPSIS":"548.530","MEAN_MOTION_DOT":"0.00000292","LAUNCH_DATE":"2021-02-16","PERIAPSIS":"545.960","MEAN_MOTION_DDOT":"0.0000000000000","NORAD_CAT_ID":"47661","MEAN_ANOMALY":"312.7797","RA_OF_ASC_NODE":"170.9668","REF_FRAME":"TEME","TIME_SYSTEM":"UTC","BSTAR":"0.00003849000000","ARG_OF_PERICENTER":"47.3348","OBJECT_NAME":"STARLINK-2051","EPOCH":"2022-05-19T19:48:21.804768","OBJECT_TYPE":"PAYLOAD","CENTER_NAME":"EARTH","COUNTRY_CODE":"US","TLE_LINE2":"2 47661  53.0550 170.9668 0001856  47.3348 312.7797 15.06389766 70262","SEMIMAJOR_AXIS":"6925.380","OBJECT_ID":"2021-012AT","ECCENTRICITY":"0.00018560","GP_ID":"203950840","EPHEMERIS_TYPE":"0","PERIOD":"95.593","INCLINATION":"53.0550","TLE_LINE1":"1 47661U 21012AT  22139.82525237  .00000292  00000-0  38490-4 0  9992","CLASSIFICATION_TYPE":"U","REV_AT_EPOCH":"7026","MEAN_MOTION":"15.06389766","SITE":"AFETR","ELEMENT_SET_NO":"999","FILE":"3453195","MEAN_ELEMENT_THEORY":"SGP4","RCS_SIZE":"LARGE","DECAY_DATE":null},{"OBJECT_ID":"2021-012AU","SEMIMAJOR_AXIS":"6925.379","ECCENTRICITY":"0.00018540","TLE_LINE2":"2 47662  53.0554 171.0542 0001854  41.3848 318.7281 15.06390004 70785","PERIOD":"95.593","INCLINATION":"53.0554","EPHEMERIS_TYPE":"0","GP_ID":"203987310","TLE_LINE1":"1 47662U 21012AU  22139.80588232 -.00000427  00000-0 -97912-5 0  9992","CLASSIFICATION_TYPE":"U","MEAN_ELEMENT_THEORY":"SGP4","FILE":"3453812","RCS_SIZE":"LARGE","DECAY_DATE":null,"REV_AT_EPOCH":"7078","ELEMENT_SET_NO":"999","SITE":"AFETR","MEAN_MOTION":"15.06390004","PERIAPSIS":"545.960","LAUNCH_DATE":"2021-02-16","NORAD_CAT_ID":"47662","MEAN_MOTION_DDOT":"0.0000000000000","MEAN_MOTION_DOT":"-0.00000427","APOAPSIS":"548.528","REF_FRAME":"TEME","MEAN_ANOMALY":"318.7281","RA_OF_ASC_NODE":"171.0542","OBJECT_NAME":"STARLINK-2052","ARG_OF_PERICENTER":"41.3848","BSTAR":"-0.00000979120000","EPOCH":"2022-05-19T19:20:28.232448","TIME_SYSTEM":"UTC","COUNTRY_CODE":"US","CENTER_NAME":"EARTH","OBJECT_TYPE":"PAYLOAD"}];
